FLOCK 4Q-36             
1 58274U 23174U   26117.20034739  .00042718  00000+0  65026-3 0  9991
2 58274  97.3846 207.8762 0005161 323.7417  36.3487 15.54388229137905
FLOCK 4Q-28             
1 58280U 23174AA  26117.22426285  .00035304  00000+0  58701-3 0  9996
2 58280  97.3882 206.8722 0003837 334.4877  25.6185 15.51979813137834
FLOCK 4Q-27             
1 58282U 23174AC  26117.48028711  .00028241  00000+0  47197-3 0  9997
2 58282  97.3814 206.6267 0003583 332.9551  27.1514 15.51881192137883
FLOCK 4Q-26             
1 58284U 23174AE  26117.52146486  .00031718  00000+0  48994-3 0  9993
2 58284  97.3874 208.2882 0004727 334.4685  25.6334 15.54046485137950
FLOCK 4Q-31             
1 58285U 23174AF  26117.49478279  .00037597  00000+0  58034-3 0  9995
2 58285  97.3909 207.9134 0004436 332.4360  27.6657 15.54034735137901
FLOCK 4Q-30             
1 58286U 23174AG  26117.47626449  .00037809  00000+0  57974-3 0  9996
2 58286  97.3928 208.1041 0003075 331.5461  28.5624 15.54222387137910
PELICAN-1               
1 58296U 23174AS  26117.53799125  .00198414  00000+0  15293-2 0  9993
2 58296  97.4001 214.7572 0003341 148.7333 211.4129 15.71366538138200
FLOCK 4Q-29             
1 58304U 23174BA  26117.22509134  .00035163  00000+0  57112-3 0  9996
2 58304  97.3925 207.3310 0004006 321.4846  38.6120 15.52635823137844
FLOCK 4Q-22             
1 58306U 23174BC  26117.47881858  .00040128  00000+0  57814-3 0  9997
2 58306  97.3814 207.9293 0003011 315.6471  44.4542 15.55917981137971
FLOCK 4Q-33             
1 58308U 23174BE  26117.24308209  .00039369  00000+0  59621-3 0  9991
2 58308  97.3850 207.5617 0004121 314.4705  45.6212 15.54552175137919
FLOCK 4Q-35             
1 58309U 23174BF  26117.19896365  .00038744  00000+0  60946-3 0  9999
2 58309  97.3872 207.6160 0004094 330.9086  29.1939 15.53506732137888
FLOCK 4Q-7              
1 58318U 23174BQ  26117.20285378  .00037854  00000+0  61993-3 0  9991
2 58318  97.3907 207.0884 0004873 318.6295  41.4588 15.52386233137837
FLOCK 4Q-2              
1 58320U 23174BS  26117.46919992  .00025008  00000+0  48897-3 0  9994
2 58320  97.3830 204.7949 0004490 324.7378  35.3574 15.47422382137754
FLOCK 4Q-9              
1 58322U 23174BU  26117.49638411  .00025337  00000+0  49720-3 0  9994
2 58322  97.3869 204.8714 0004538 324.3985  35.6962 15.47314756137740
FLOCK 4Q-4              
1 58327U 23174BZ  26117.19278844  .00026368  00000+0  53159-3 0  9992
2 58327  97.3821 203.8635 0004834 358.8489   1.2748 15.46519147137677
FLOCK 4Q-13             
1 58328U 23174CA  26117.20251734  .00028159  00000+0  51237-3 0  9999
2 58328  97.3997 206.6171 0005211 344.3143  15.7946 15.49465967137779
