[{"OBJECT_NAME":"FLOCK 4Q-36","OBJECT_ID":"2023-174U","EPOCH":"2026-04-27T04:48:30.014496","MEAN_MOTION":15.54388229,"ECCENTRICITY":0.00051618,"INCLINATION":97.3846,"RA_OF_ASC_NODE":207.8762,"ARG_OF_PERICENTER":323.7417,"MEAN_ANOMALY":36.3487,"EPHEMERIS_TYPE":0,"CLASSIFICATION_TYPE":"U","NORAD_CAT_ID":58274,"ELEMENT_SET_NO":999,"REV_AT_EPOCH":13790,"BSTAR":0.00065026388,"MEAN_MOTION_DOT":0.00042718,"MEAN_MOTION_DDOT":0},{"OBJECT_NAME":"FLOCK 4Q-28","OBJECT_ID":"2023-174AA","EPOCH":"2026-04-27T05:22:56.310240","MEAN_MOTION":15.51979813,"ECCENTRICITY":0.0003837,"INCLINATION":97.3882,"RA_OF_ASC_NODE":206.8722,"ARG_OF_PERICENTER":334.4877,"MEAN_ANOMALY":25.6185,"EPHEMERIS_TYPE":0,"CLASSIFICATION_TYPE":"U","NORAD_CAT_ID":58280,"ELEMENT_SET_NO":999,"REV_AT_EPOCH":13783,"BSTAR":0.00058701,"MEAN_MOTION_DOT":0.00035304,"MEAN_MOTION_DDOT":0},{"OBJECT_NAME":"FLOCK 4Q-27","OBJECT_ID":"2023-174AC","EPOCH":"2026-04-27T11:31:36.806304","MEAN_MOTION":15.51881192,"ECCENTRICITY":0.0003583,"INCLINATION":97.3814,"RA_OF_ASC_NODE":206.6267,"ARG_OF_PERICENTER":332.9551,"MEAN_ANOMALY":27.1514,"EPHEMERIS_TYPE":0,"CLASSIFICATION_TYPE":"U","NORAD_CAT_ID":58282,"ELEMENT_SET_NO":999,"REV_AT_EPOCH":13788,"BSTAR":0.00047197,"MEAN_MOTION_DOT":0.00028241,"MEAN_MOTION_DDOT":0},{"OBJECT_NAME":"FLOCK 4Q-26","OBJECT_ID":"2023-174AE","EPOCH":"2026-04-27T12:30:54.563904","MEAN_MOTION":15.54046485,"ECCENTRICITY":0.0004727,"INCLINATION":97.3874,"RA_OF_ASC_NODE":208.2882,"ARG_OF_PERICENTER":334.4685,"MEAN_ANOMALY":25.6334,"EPHEMERIS_TYPE":0,"CLASSIFICATION_TYPE":"U","NORAD_CAT_ID":58284,"ELEMENT_SET_NO":999,"REV_AT_EPOCH":13795,"BSTAR":0.00048994,"MEAN_MOTION_DOT":0.00031718,"MEAN_MOTION_DDOT":0},{"OBJECT_NAME":"FLOCK 4Q-31","OBJECT_ID":"2023-174AF","EPOCH":"2026-04-27T11:52:29.233056","MEAN_MOTION":15.54034735,"ECCENTRICITY":0.0004436,"INCLINATION":97.3909,"RA_OF_ASC_NODE":207.9134,"ARG_OF_PERICENTER":332.436,"MEAN_ANOMALY":27.6657,"EPHEMERIS_TYPE":0,"CLASSIFICATION_TYPE":"U","NORAD_CAT_ID":58285,"ELEMENT_SET_NO":999,"REV_AT_EPOCH":13790,"BSTAR":0.00058034,"MEAN_MOTION_DOT":0.00037597,"MEAN_MOTION_DDOT":0},{"OBJECT_NAME":"FLOCK 4Q-30","OBJECT_ID":"2023-174AG","EPOCH":"2026-04-27T11:25:49.251936","MEAN_MOTION":15.54222387,"ECCENTRICITY":0.0003075,"INCLINATION":97.3928,"RA_OF_ASC_NODE":208.1041,"ARG_OF_PERICENTER":331.5461,"MEAN_ANOMALY":28.5624,"EPHEMERIS_TYPE":0,"CLASSIFICATION_TYPE":"U","NORAD_CAT_ID":58286,"ELEMENT_SET_NO":999,"REV_AT_EPOCH":13791,"BSTAR":0.00057974,"MEAN_MOTION_DOT":0.00037809,"MEAN_MOTION_DDOT":0},{"OBJECT_NAME":"PELICAN-1","OBJECT_ID":"2023-174AS","EPOCH":"2026-04-27T12:54:42.444000","MEAN_MOTION":15.71366538,"ECCENTRICITY":0.0003341,"INCLINATION":97.4001,"RA_OF_ASC_NODE":214.7572,"ARG_OF_PERICENTER":148.7333,"MEAN_ANOMALY":211.4129,"EPHEMERIS_TYPE":0,"CLASSIFICATION_TYPE":"U","NORAD_CAT_ID":58296,"ELEMENT_SET_NO":999,"REV_AT_EPOCH":13820,"BSTAR":0.0015293,"MEAN_MOTION_DOT":0.00198414,"MEAN_MOTION_DDOT":0},{"OBJECT_NAME":"FLOCK 4Q-29","OBJECT_ID":"2023-174BA","EPOCH":"2026-04-27T05:24:07.891776","MEAN_MOTION":15.52635823,"ECCENTRICITY":0.00040068,"INCLINATION":97.3925,"RA_OF_ASC_NODE":207.331,"ARG_OF_PERICENTER":321.4846,"MEAN_ANOMALY":38.612,"EPHEMERIS_TYPE":0,"CLASSIFICATION_TYPE":"U","NORAD_CAT_ID":58304,"ELEMENT_SET_NO":999,"REV_AT_EPOCH":13784,"BSTAR":0.00057111653,"MEAN_MOTION_DOT":0.00035163,"MEAN_MOTION_DDOT":0},{"OBJECT_NAME":"FLOCK 4Q-22","OBJECT_ID":"2023-174BC","EPOCH":"2026-04-27T11:29:29.925312","MEAN_MOTION":15.55917981,"ECCENTRICITY":0.0003011,"INCLINATION":97.3814,"RA_OF_ASC_NODE":207.9293,"ARG_OF_PERICENTER":315.6471,"MEAN_ANOMALY":44.4542,"EPHEMERIS_TYPE":0,"CLASSIFICATION_TYPE":"U","NORAD_CAT_ID":58306,"ELEMENT_SET_NO":999,"REV_AT_EPOCH":13797,"BSTAR":0.00057814,"MEAN_MOTION_DOT":0.00040128,"MEAN_MOTION_DDOT":0},{"OBJECT_NAME":"FLOCK 4Q-33","OBJECT_ID":"2023-174BE","EPOCH":"2026-04-27T05:50:02.292576","MEAN_MOTION":15.54552175,"ECCENTRICITY":0.0004121,"INCLINATION":97.385,"RA_OF_ASC_NODE":207.5617,"ARG_OF_PERICENTER":314.4705,"MEAN_ANOMALY":45.6212,"EPHEMERIS_TYPE":0,"CLASSIFICATION_TYPE":"U","NORAD_CAT_ID":58308,"ELEMENT_SET_NO":999,"REV_AT_EPOCH":13791,"BSTAR":0.00059621,"MEAN_MOTION_DOT":0.00039369,"MEAN_MOTION_DDOT":0},{"OBJECT_NAME":"FLOCK 4Q-35","OBJECT_ID":"2023-174BF","EPOCH":"2026-04-27T04:46:30.459360","MEAN_MOTION":15.53506732,"ECCENTRICITY":0.0004094,"INCLINATION":97.3872,"RA_OF_ASC_NODE":207.616,"ARG_OF_PERICENTER":330.9086,"MEAN_ANOMALY":29.1939,"EPHEMERIS_TYPE":0,"CLASSIFICATION_TYPE":"U","NORAD_CAT_ID":58309,"ELEMENT_SET_NO":999,"REV_AT_EPOCH":13788,"BSTAR":0.00060946494,"MEAN_MOTION_DOT":0.00038744,"MEAN_MOTION_DDOT":0},{"OBJECT_NAME":"FLOCK 4Q-7","OBJECT_ID":"2023-174BQ","EPOCH":"2026-04-27T04:52:06.566592","MEAN_MOTION":15.52386233,"ECCENTRICITY":0.00048739,"INCLINATION":97.3907,"RA_OF_ASC_NODE":207.0884,"ARG_OF_PERICENTER":318.6295,"MEAN_ANOMALY":41.4588,"EPHEMERIS_TYPE":0,"CLASSIFICATION_TYPE":"U","NORAD_CAT_ID":58318,"ELEMENT_SET_NO":999,"REV_AT_EPOCH":13783,"BSTAR":0.00061993094,"MEAN_MOTION_DOT":0.00037854,"MEAN_MOTION_DDOT":0},{"OBJECT_NAME":"FLOCK 4Q-2","OBJECT_ID":"2023-174BS","EPOCH":"2026-04-27T11:15:38.873088","MEAN_MOTION":15.47422382,"ECCENTRICITY":0.000449,"INCLINATION":97.383,"RA_OF_ASC_NODE":204.7949,"ARG_OF_PERICENTER":324.7378,"MEAN_ANOMALY":35.3574,"EPHEMERIS_TYPE":0,"CLASSIFICATION_TYPE":"U","NORAD_CAT_ID":58320,"ELEMENT_SET_NO":999,"REV_AT_EPOCH":13775,"BSTAR":0.00048897,"MEAN_MOTION_DOT":0.00025008,"MEAN_MOTION_DDOT":0},{"OBJECT_NAME":"FLOCK 4Q-9","OBJECT_ID":"2023-174BU","EPOCH":"2026-04-27T11:54:47.587104","MEAN_MOTION":15.47314756,"ECCENTRICITY":0.0004538,"INCLINATION":97.3869,"RA_OF_ASC_NODE":204.8714,"ARG_OF_PERICENTER":324.3985,"MEAN_ANOMALY":35.6962,"EPHEMERIS_TYPE":0,"CLASSIFICATION_TYPE":"U","NORAD_CAT_ID":58322,"ELEMENT_SET_NO":999,"REV_AT_EPOCH":13774,"BSTAR":0.0004972,"MEAN_MOTION_DOT":0.00025337,"MEAN_MOTION_DDOT":0},{"OBJECT_NAME":"FLOCK 4Q-4","OBJECT_ID":"2023-174BZ","EPOCH":"2026-04-27T04:37:36.921216","MEAN_MOTION":15.46519147,"ECCENTRICITY":0.00048349,"INCLINATION":97.3821,"RA_OF_ASC_NODE":203.8635,"ARG_OF_PERICENTER":358.8489,"MEAN_ANOMALY":1.2748,"EPHEMERIS_TYPE":0,"CLASSIFICATION_TYPE":"U","NORAD_CAT_ID":58327,"ELEMENT_SET_NO":999,"REV_AT_EPOCH":13767,"BSTAR":0.00053159159,"MEAN_MOTION_DOT":0.00026368,"MEAN_MOTION_DDOT":0},{"OBJECT_NAME":"FLOCK 4Q-13","OBJECT_ID":"2023-174CA","EPOCH":"2026-04-27T04:51:37.498176","MEAN_MOTION":15.49465967,"ECCENTRICITY":0.00052115,"INCLINATION":97.3997,"RA_OF_ASC_NODE":206.6171,"ARG_OF_PERICENTER":344.3143,"MEAN_ANOMALY":15.7946,"EPHEMERIS_TYPE":0,"CLASSIFICATION_TYPE":"U","NORAD_CAT_ID":58328,"ELEMENT_SET_NO":999,"REV_AT_EPOCH":13777,"BSTAR":0.00051236738,"MEAN_MOTION_DOT":0.00028159,"MEAN_MOTION_DDOT":0}]
